STARLINK-4178           
1 53277U 22086AM  26068.61855127 -.00000077  00000+0  13252-4 0  9990
2 53277  53.2181 184.4725 0001282  82.3067 277.8071 15.08836765201189
ONEWEB-0618             
1 55159U 23004V   26068.89389266  .00008547  00000+0  49588-3 0  9997
2 55159  86.9069 217.8931 0010784 307.7231  52.3030 15.11974897167255
